[{"OBJECT_NAME":"SES-2","OBJECT_ID":"2011-049A","EPOCH":"2026-04-05T04:11:38.812992","MEAN_MOTION":1.00272243,"ECCENTRICITY":0.00029575,"INCLINATION":0.0559,"RA_OF_ASC_NODE":66.6922,"ARG_OF_PERICENTER":311.0655,"MEAN_ANOMALY":151.635,"EPHEMERIS_TYPE":0,"CLASSIFICATION_TYPE":"U","NORAD_CAT_ID":37809,"ELEMENT_SET_NO":999,"REV_AT_EPOCH":5323,"BSTAR":0,"MEAN_MOTION_DOT":-1.95e-6,"MEAN_MOTION_DDOT":0},{"OBJECT_NAME":"QUETZSAT 1","OBJECT_ID":"2011-054A","EPOCH":"2026-04-05T03:23:56.516640","MEAN_MOTION":1.00271357,"ECCENTRICITY":0.00023028,"INCLINATION":0.0505,"RA_OF_ASC_NODE":60.6983,"ARG_OF_PERICENTER":315.3272,"MEAN_ANOMALY":151.4131,"EPHEMERIS_TYPE":0,"CLASSIFICATION_TYPE":"U","NORAD_CAT_ID":37826,"ELEMENT_SET_NO":999,"REV_AT_EPOCH":4914,"BSTAR":0,"MEAN_MOTION_DOT":-2.41e-6,"MEAN_MOTION_DDOT":0},{"OBJECT_NAME":"SES-4","OBJECT_ID":"2012-007A","EPOCH":"2026-04-05T05:47:40.693344","MEAN_MOTION":1.00270437,"ECCENTRICITY":0.00022248,"INCLINATION":0.0268,"RA_OF_ASC_NODE":65.5775,"ARG_OF_PERICENTER":319.2818,"MEAN_ANOMALY":233.6083,"EPHEMERIS_TYPE":0,"CLASSIFICATION_TYPE":"U","NORAD_CAT_ID":38087,"ELEMENT_SET_NO":999,"REV_AT_EPOCH":5149,"BSTAR":0,"MEAN_MOTION_DOT":-1.67e-6,"MEAN_MOTION_DDOT":0},{"OBJECT_NAME":"SES-5","OBJECT_ID":"2012-036A","EPOCH":"2026-04-05T05:28:38.784288","MEAN_MOTION":1.00271682,"ECCENTRICITY":0.00020162,"INCLINATION":0.0599,"RA_OF_ASC_NODE":303.013,"ARG_OF_PERICENTER":75.2098,"MEAN_ANOMALY":262.4372,"EPHEMERIS_TYPE":0,"CLASSIFICATION_TYPE":"U","NORAD_CAT_ID":38652,"ELEMENT_SET_NO":999,"REV_AT_EPOCH":4372,"BSTAR":0,"MEAN_MOTION_DOT":3.5e-7,"MEAN_MOTION_DDOT":0},{"OBJECT_NAME":"ASTRA 2F","OBJECT_ID":"2012-051A","EPOCH":"2026-04-05T05:12:38.653056","MEAN_MOTION":1.00269855,"ECCENTRICITY":0.00013892,"INCLINATION":0.0648,"RA_OF_ASC_NODE":254.9002,"ARG_OF_PERICENTER":32.5561,"MEAN_ANOMALY":12.4249,"EPHEMERIS_TYPE":0,"CLASSIFICATION_TYPE":"U","NORAD_CAT_ID":38778,"ELEMENT_SET_NO":999,"REV_AT_EPOCH":4040,"BSTAR":0,"MEAN_MOTION_DOT":1.51e-6,"MEAN_MOTION_DDOT":0},{"OBJECT_NAME":"SES-6","OBJECT_ID":"2013-026A","EPOCH":"2026-04-05T01:35:28.015872","MEAN_MOTION":1.00272987,"ECCENTRICITY":0.00027203,"INCLINATION":0.0384,"RA_OF_ASC_NODE":292.0167,"ARG_OF_PERICENTER":85.6544,"MEAN_ANOMALY":159.0715,"EPHEMERIS_TYPE":0,"CLASSIFICATION_TYPE":"U","NORAD_CAT_ID":39172,"ELEMENT_SET_NO":999,"REV_AT_EPOCH":4699,"BSTAR":0,"MEAN_MOTION_DOT":-2.6e-6,"MEAN_MOTION_DDOT":0},{"OBJECT_NAME":"O3B FM5","OBJECT_ID":"2013-031A","EPOCH":"2026-04-04T21:07:25.754016","MEAN_MOTION":5.00116539,"ECCENTRICITY":0.00032275,"INCLINATION":0.1018,"RA_OF_ASC_NODE":5.7561,"ARG_OF_PERICENTER":358.382,"MEAN_ANOMALY":355.8634,"EPHEMERIS_TYPE":0,"CLASSIFICATION_TYPE":"U","NORAD_CAT_ID":39188,"ELEMENT_SET_NO":999,"REV_AT_EPOCH":23337,"BSTAR":0,"MEAN_MOTION_DOT":-2.6e-7,"MEAN_MOTION_DDOT":0},{"OBJECT_NAME":"O3B FM4","OBJECT_ID":"2013-031B","EPOCH":"2026-03-27T09:41:53.263680","MEAN_MOTION":5.00115128,"ECCENTRICITY":0.00050688,"INCLINATION":0.0535,"RA_OF_ASC_NODE":345.5776,"ARG_OF_PERICENTER":27.4764,"MEAN_ANOMALY":346.9547,"EPHEMERIS_TYPE":0,"CLASSIFICATION_TYPE":"U","NORAD_CAT_ID":39189,"ELEMENT_SET_NO":999,"REV_AT_EPOCH":23295,"BSTAR":0,"MEAN_MOTION_DOT":-2.8e-7,"MEAN_MOTION_DDOT":0},{"OBJECT_NAME":"O3B FM2","OBJECT_ID":"2013-031C","EPOCH":"2026-04-04T20:45:47.682144","MEAN_MOTION":5.00116057,"ECCENTRICITY":0.00027707,"INCLINATION":0.0514,"RA_OF_ASC_NODE":339.0477,"ARG_OF_PERICENTER":33.0431,"MEAN_ANOMALY":347.9145,"EPHEMERIS_TYPE":0,"CLASSIFICATION_TYPE":"U","NORAD_CAT_ID":39190,"ELEMENT_SET_NO":999,"REV_AT_EPOCH":23344,"BSTAR":0,"MEAN_MOTION_DOT":-2.6e-7,"MEAN_MOTION_DDOT":0},{"OBJECT_NAME":"O3B PFM","OBJECT_ID":"2013-031D","EPOCH":"2026-04-05T01:53:57.706368","MEAN_MOTION":5.00116068,"ECCENTRICITY":0.00054,"INCLINATION":0.0701,"RA_OF_ASC_NODE":3.8026,"ARG_OF_PERICENTER":16.8934,"MEAN_ANOMALY":339.3246,"EPHEMERIS_TYPE":0,"CLASSIFICATION_TYPE":"U","NORAD_CAT_ID":39191,"ELEMENT_SET_NO":999,"REV_AT_EPOCH":23301,"BSTAR":0,"MEAN_MOTION_DOT":-2.5e-7,"MEAN_MOTION_DDOT":0},{"OBJECT_NAME":"ASTRA 2E","OBJECT_ID":"2013-056A","EPOCH":"2026-04-05T05:12:38.653056","MEAN_MOTION":1.0027245,"ECCENTRICITY":0.00023231,"INCLINATION":0.0876,"RA_OF_ASC_NODE":43.8378,"ARG_OF_PERICENTER":329.19,"MEAN_ANOMALY":287.1323,"EPHEMERIS_TYPE":0,"CLASSIFICATION_TYPE":"U","NORAD_CAT_ID":39285,"ELEMENT_SET_NO":999,"REV_AT_EPOCH":4568,"BSTAR":0,"MEAN_MOTION_DOT":1.51e-6,"MEAN_MOTION_DDOT":0},{"OBJECT_NAME":"SES-8","OBJECT_ID":"2013-071A","EPOCH":"2026-04-05T02:55:42.444192","MEAN_MOTION":1.00272054,"ECCENTRICITY":0.00024239,"INCLINATION":0.021,"RA_OF_ASC_NODE":256.2958,"ARG_OF_PERICENTER":148.3669,"MEAN_ANOMALY":287.6894,"EPHEMERIS_TYPE":0,"CLASSIFICATION_TYPE":"U","NORAD_CAT_ID":39460,"ELEMENT_SET_NO":999,"REV_AT_EPOCH":4370,"BSTAR":0,"MEAN_MOTION_DOT":-2.68e-6,"MEAN_MOTION_DDOT":0},{"OBJECT_NAME":"ASTRA 5B","OBJECT_ID":"2014-011B","EPOCH":"2026-04-05T05:12:38.653056","MEAN_MOTION":1.00273337,"ECCENTRICITY":0.00033646,"INCLINATION":0.073,"RA_OF_ASC_NODE":306.6325,"ARG_OF_PERICENTER":49.4986,"MEAN_ANOMALY":299.035,"EPHEMERIS_TYPE":0,"CLASSIFICATION_TYPE":"U","NORAD_CAT_ID":39617,"ELEMENT_SET_NO":999,"REV_AT_EPOCH":4393,"BSTAR":0,"MEAN_MOTION_DOT":1.38e-6,"MEAN_MOTION_DDOT":0},{"OBJECT_NAME":"O3B FM3","OBJECT_ID":"2014-038A","EPOCH":"2026-04-04T13:06:23.738112","MEAN_MOTION":5.00115652,"ECCENTRICITY":0.0001028,"INCLINATION":0.0526,"RA_OF_ASC_NODE":354.6808,"ARG_OF_PERICENTER":86.2225,"MEAN_ANOMALY":279.1068,"EPHEMERIS_TYPE":0,"CLASSIFICATION_TYPE":"U","NORAD_CAT_ID":40079,"ELEMENT_SET_NO":999,"REV_AT_EPOCH":20936,"BSTAR":0,"MEAN_MOTION_DOT":-2.6e-7,"MEAN_MOTION_DDOT":0},{"OBJECT_NAME":"O3B FM7","OBJECT_ID":"2014-038B","EPOCH":"2026-04-03T21:25:14.686176","MEAN_MOTION":5.00115689,"ECCENTRICITY":0.00042766,"INCLINATION":0.0568,"RA_OF_ASC_NODE":348.1667,"ARG_OF_PERICENTER":10.66,"MEAN_ANOMALY":1.1706,"EPHEMERIS_TYPE":0,"CLASSIFICATION_TYPE":"U","NORAD_CAT_ID":40080,"ELEMENT_SET_NO":999,"REV_AT_EPOCH":21416,"BSTAR":0,"MEAN_MOTION_DOT":-2.6e-7,"MEAN_MOTION_DDOT":0},{"OBJECT_NAME":"O3B FM6","OBJECT_ID":"2014-038C","EPOCH":"2026-04-04T22:03:20.173536","MEAN_MOTION":5.00115747,"ECCENTRICITY":0.00026409,"INCLINATION":0.0537,"RA_OF_ASC_NODE":351.8755,"ARG_OF_PERICENTER":21.2942,"MEAN_ANOMALY":346.8359,"EPHEMERIS_TYPE":0,"CLASSIFICATION_TYPE":"U","NORAD_CAT_ID":40081,"ELEMENT_SET_NO":999,"REV_AT_EPOCH":21415,"BSTAR":0,"MEAN_MOTION_DOT":-2.6e-7,"MEAN_MOTION_DDOT":0},{"OBJECT_NAME":"O3B FM8","OBJECT_ID":"2014-038D","EPOCH":"2026-04-04T23:20:05.265024","MEAN_MOTION":5.00116032,"ECCENTRICITY":0.00026784,"INCLINATION":0.0543,"RA_OF_ASC_NODE":350.9758,"ARG_OF_PERICENTER":25.7452,"MEAN_ANOMALY":343.2866,"EPHEMERIS_TYPE":0,"CLASSIFICATION_TYPE":"U","NORAD_CAT_ID":40082,"ELEMENT_SET_NO":999,"REV_AT_EPOCH":21428,"BSTAR":0,"MEAN_MOTION_DOT":-2.6e-7,"MEAN_MOTION_DDOT":0}]
